STARLINK-37376          
1 69378U 26123AB  26161.25003472 -.01812492  10212-2 -29027-2 0  9995
2 69378  53.1563 276.4313 0000573 106.4939 142.5965 16.03072376  2178
STARLINK-37383          
1 69379U 26123AC  26161.25003472 -.01617630  83431-3 -24627-2 0  9998
2 69379  53.1558 276.3936 0000620  54.3396 212.7802 16.03892451  2178
STARLINK-37411          
1 69380U 26123AD  26161.25003472 -.01702072  90897-3 -27111-2 0  9990
2 69380  53.1563 276.4184 0000848  55.2049 199.8464 16.03148895  2174
STARLINK-37427          
1 69381U 26123AE  26161.25003472 -.01623905  83759-3 -25138-2 0  9994
2 69381  53.1563 276.4038 0000702  50.0104 212.1594 16.03615926  2084
DTC TEST OBJECT A       
1 69472U 26128A   26160.58684054  .00008364  00000+0  12625-3 0  9991
2 69472  54.9945 340.1377 0008139 256.5053 103.5075 15.55697057    43
