OBJECT_NAME,OBJECT_ID,EPOCH,MEAN_MOTION,ECCENTRICITY,INCLINATION,RA_OF_ASC_NODE,ARG_OF_PERICENTER,MEAN_ANOMALY,EPHEMERIS_TYPE,CLASSIFICATION_TYPE,NORAD_CAT_ID,ELEMENT_SET_NO,REV_AT_EPOCH,BSTAR,MEAN_MOTION_DOT,MEAN_MOTION_DDOT
STARLINK-37376,2026-123AB,2026-06-10T06:00:02.999808,16.03072376,.00005735,53.1563,276.4313,106.4939,142.5965,0,U,69378,999,217,-.29027431E-2,-.1812492E-1,.10212148E-2
STARLINK-37383,2026-123AC,2026-06-10T06:00:02.999808,16.03892451,.00006209,53.1558,276.3936,54.3396,212.7802,0,U,69379,999,217,-.24627307E-2,-.161763E-1,.83430662E-3
STARLINK-37411,2026-123AD,2026-06-10T06:00:02.999808,16.03148895,.00008485,53.1563,276.4184,55.2049,199.8464,0,U,69380,999,217,-.2711148E-2,-.1702072E-1,.90897357E-3
STARLINK-37427,2026-123AE,2026-06-10T06:00:02.999808,16.03615926,.00007022,53.1563,276.4038,50.0104,212.1594,0,U,69381,999,208,-.25138238E-2,-.1623905E-1,.83759407E-3
DTC TEST OBJECT A,2026-128A,2026-06-09T14:05:03.022656,15.55697057,.00081394,54.9945,340.1377,256.5053,103.5075,0,U,69472,999,4,.12625073E-3,.8364E-4,0
